{
  "type": "FeatureCollection",
  "features": [
    {
      "type": "Feature",
      "properties": {
        "norad_id": 30022,
        "name": "FENGYUN 1C DEB",
        "group": "fengyun-1c-debris",
        "lat": 29.830767108328516,
        "lon": -155.93842896344583,
        "alt_km": 858.8306177163959,
        "timestamp": "2025-12-26T18:39:32.553521+00:00",
        "meta_object_name": "FENGYUN 1C DEB",
        "meta_object_id": "1999-025MX",
        "meta_epoch": "2025-12-26T13:43:07.807296",
        "meta_mean_motion": 14.23137341,
        "meta_eccentricity": 0.00667653,
        "meta_inclination": 99.0714,
        "meta_ra_of_asc_node": 209.1059,
        "meta_arg_of_pericenter": 228.9777,
        "meta_mean_anomaly": 187.1291,
        "meta_ephemeris_type": 0,
        "meta_classification_type": "U",
        "meta_norad_cat_id": 30022,
        "meta_element_set_no": 999,
        "meta_rev_at_epoch": 98389,
        "meta_bstar": 7.4049147e-05,
        "meta_mean_motion_dot": 1.24e-06,
        "meta_mean_motion_ddot": 0,
        "tle_line1": "1 30022U 99025MX  25360.57161814  .00000124  00000+0  74049-4 0  9995",
        "tle_line2": "2 30022  99.0714 209.1059 0066765 228.9777 187.1291 14.23137341983892"
      },
      "geometry": {
        "type": "Point",
        "coordinates": [
          -155.93842896344583,
          29.830767108328516
        ]
      }
    },
    {
      "type": "Feature",
      "properties": {
        "norad_id": 30023,
        "name": "FENGYUN 1C DEB",
        "group": "fengyun-1c-debris",
        "lat": 65.69394231409845,
        "lon": 36.1011008560766,
        "alt_km": 844.9770490840128,
        "timestamp": "2025-12-26T18:39:32.553531+00:00",
        "meta_object_name": "FENGYUN 1C DEB",
        "meta_object_id": "1999-025MY",
        "meta_epoch": "2025-12-26T11:35:59.968608",
        "meta_mean_motion": 14.11882536,
        "meta_eccentricity": 0.00469198,
        "meta_inclination": 99.2935,
        "meta_ra_of_asc_node": 194.5397,
        "meta_arg_of_pericenter": 25.6007,
        "meta_mean_anomaly": 32.217,
        "meta_ephemeris_type": 0,
        "meta_classification_type": "U",
        "meta_norad_cat_id": 30023,
        "meta_element_set_no": 999,
        "meta_rev_at_epoch": 97390,
        "meta_bstar": 0.00041047103,
        "meta_mean_motion_dot": 7.1e-06,
        "meta_mean_motion_ddot": 0,
        "tle_line1": "1 30023U 99025MY  25360.48333297  .00000710  00000+0  41047-3 0  9994",
        "tle_line2": "2 30023  99.2935 194.5397 0046919  25.6007  32.2170 14.11882536973906"
      },
      "geometry": {
        "type": "Point",
        "coordinates": [
          36.1011008560766,
          65.69394231409845
        ]
      }
    },
    {
      "type": "Feature",
      "properties": {
        "norad_id": 30028,
        "name": "FENGYUN 1C DEB",
        "group": "fengyun-1c-debris",
        "lat": 66.83032934762252,
        "lon": -26.890200854131535,
        "alt_km": 754.373583512579,
        "timestamp": "2025-12-26T18:39:32.553541+00:00",
        "meta_object_name": "FENGYUN 1C DEB",
        "meta_object_id": "1999-025ND",
        "meta_epoch": "2025-12-26T13:58:31.601280",
        "meta_mean_motion": 14.55533777,
        "meta_eccentricity": 0.01748911,
        "meta_inclination": 98.1465,
        "meta_ra_of_asc_node": 352.4737,
        "meta_arg_of_pericenter": 185.2337,
        "meta_mean_anomaly": 302.8847,
        "meta_ephemeris_type": 0,
        "meta_classification_type": "U",
        "meta_norad_cat_id": 30028,
        "meta_element_set_no": 999,
        "meta_rev_at_epoch": 99923,
        "meta_bstar": 0.00029310248,
        "meta_mean_motion_dot": 1.516e-05,
        "meta_mean_motion_ddot": 0,
        "tle_line1": "1 30028U 99025ND  25360.58231020  .00001516  00000+0  29310-3 0  9995",
        "tle_line2": "2 30028  98.1465 352.4737 0174891 185.2337 302.8847 14.55533777999239"
      },
      "geometry": {
        "type": "Point",
        "coordinates": [
          -26.890200854131535,
          66.83032934762252
        ]
      }
    },
    {
      "type": "Feature",
      "properties": {
        "norad_id": 30035,
        "name": "FENGYUN 1C DEB",
        "group": "fengyun-1c-debris",
        "lat": 25.830560317481666,
        "lon": -87.86641414416555,
        "alt_km": 685.5628668260988,
        "timestamp": "2025-12-26T18:39:32.553551+00:00",
        "meta_object_name": "FENGYUN 1C DEB",
        "meta_object_id": "1999-025NL",
        "meta_epoch": "2025-12-26T05:52:31.228032",
        "meta_mean_motion": 14.36981993,
        "meta_eccentricity": 0.01151467,
        "meta_inclination": 99.2716,
        "meta_ra_of_asc_node": 276.0955,
        "meta_arg_of_pericenter": 22.8373,
        "meta_mean_anomaly": 129.4076,
        "meta_ephemeris_type": 0,
        "meta_classification_type": "U",
        "meta_norad_cat_id": 30035,
        "meta_element_set_no": 999,
        "meta_rev_at_epoch": 99317,
        "meta_bstar": 9.7405709e-05,
        "meta_mean_motion_dot": 2.58e-06,
        "meta_mean_motion_ddot": 0,
        "tle_line1": "1 30035U 99025NL  25360.24480588  .00000258  00000+0  97406-4 0  9995",
        "tle_line2": "2 30035  99.2716 276.0955 0115146  22.8373 129.4076 14.36981993993175"
      },
      "geometry": {
        "type": "Point",
        "coordinates": [
          -87.86641414416555,
          25.830560317481666
        ]
      }
    },
    {
      "type": "Feature",
      "properties": {
        "norad_id": 30036,
        "name": "FENGYUN 1C DEB",
        "group": "fengyun-1c-debris",
        "lat": -43.30297106728989,
        "lon": -160.3503502461533,
        "alt_km": 672.7162377929408,
        "timestamp": "2025-12-26T18:39:32.553561+00:00",
        "meta_object_name": "FENGYUN 1C DEB",
        "meta_object_id": "1999-025NM",
        "meta_epoch": "2025-12-26T07:44:33.251712",
        "meta_mean_motion": 14.46225739,
        "meta_eccentricity": 0.01905863,
        "meta_inclination": 98.2518,
        "meta_ra_of_asc_node": 27.0675,
        "meta_arg_of_pericenter": 166.2549,
        "meta_mean_anomaly": 208.8997,
        "meta_ephemeris_type": 0,
        "meta_classification_type": "U",
        "meta_norad_cat_id": 30036,
        "meta_element_set_no": 999,
        "meta_rev_at_epoch": 99373,
        "meta_bstar": 0.00036173753,
        "meta_mean_motion_dot": 1.572e-05,
        "meta_mean_motion_ddot": 0,
        "tle_line1": "1 30036U 99025NM  25360.32260708  .00001572  00000+0  36174-3 0  9999",
        "tle_line2": "2 30036  98.2518  27.0675 0190586 166.2549 208.8997 14.46225739993733"
      },
      "geometry": {
        "type": "Point",
        "coordinates": [
          -160.3503502461533,
          -43.30297106728989
        ]
      }
    },
    {
      "type": "Feature",
      "properties": {
        "norad_id": 30037,
        "name": "FENGYUN 1C DEB",
        "group": "fengyun-1c-debris",
        "lat": 6.491283306487931,
        "lon": -24.88487971372381,
        "alt_km": 656.4569554167647,
        "timestamp": "2025-12-26T18:39:32.553571+00:00",
        "meta_object_name": "FENGYUN 1C DEB",
        "meta_object_id": "1999-025NN",
        "meta_epoch": "2025-12-26T12:30:08.165376",
        "meta_mean_motion": 14.34139214,
        "meta_eccentricity": 0.01737647,
        "meta_inclination": 98.3851,
        "meta_ra_of_asc_node": 335.8278,
        "meta_arg_of_pericenter": 14.2296,
        "meta_mean_anomaly": 108.9949,
        "meta_ephemeris_type": 0,
        "meta_classification_type": "U",
        "meta_norad_cat_id": 30037,
        "meta_element_set_no": 999,
        "meta_rev_at_epoch": 98985,
        "meta_bstar": 0.00027191062,
        "meta_mean_motion_dot": 8.55e-06,
        "meta_mean_motion_ddot": 0,
        "tle_line1": "1 30037U 99025NN  25360.52092784  .00000855  00000+0  27191-3 0  9991",
        "tle_line2": "2 30037  98.3851 335.8278 0173764  14.2296 108.9949 14.34139214989858"
      },
      "geometry": {
        "type": "Point",
        "coordinates": [
          -24.88487971372381,
          6.491283306487931
        ]
      }
    },
    {
      "type": "Feature",
      "properties": {
        "norad_id": 30038,
        "name": "FENGYUN 1C DEB",
        "group": "fengyun-1c-debris",
        "lat": -62.014229483575505,
        "lon": 4.171092353348936,
        "alt_km": 867.3331064507101,
        "timestamp": "2025-12-26T18:39:32.553581+00:00",
        "meta_object_name": "FENGYUN 1C DEB",
        "meta_object_id": "1999-025NP",
        "meta_epoch": "2025-12-26T11:20:30.808320",
        "meta_mean_motion": 14.39327159,
        "meta_eccentricity": 0.02578443,
        "meta_inclination": 98.3697,
        "meta_ra_of_asc_node": 347.7888,
        "meta_arg_of_pericenter": 61.7051,
        "meta_mean_anomaly": 98.7814,
        "meta_ephemeris_type": 0,
        "meta_classification_type": "U",
        "meta_norad_cat_id": 30038,
        "meta_element_set_no": 999,
        "meta_rev_at_epoch": 99088,
        "meta_bstar": 0.00031972766,
        "meta_mean_motion_dot": 1.416e-05,
        "meta_mean_motion_ddot": 0,
        "tle_line1": "1 30038U 99025NP  25360.47257880  .00001416  00000+0  31973-3 0  9993",
        "tle_line2": "2 30038  98.3697 347.7888 0257844  61.7051  98.7814 14.39327159990888"
      },
      "geometry": {
        "type": "Point",
        "coordinates": [
          4.171092353348936,
          -62.014229483575505
        ]
      }
    }
  ]
}